[{"OBJECT_NAME":"HELIOS 1B","OBJECT_ID":"1999-064A","EPOCH":"2026-04-20T11:30:12.801312","MEAN_MOTION":14.87846531,"ECCENTRICITY":5.429e-5,"INCLINATION":98.1654,"RA_OF_ASC_NODE":13.944,"ARG_OF_PERICENTER":46.4734,"MEAN_ANOMALY":313.6526,"EPHEMERIS_TYPE":0,"CLASSIFICATION_TYPE":"U","NORAD_CAT_ID":25977,"ELEMENT_SET_NO":999,"REV_AT_EPOCH":69147,"BSTAR":0.00011344058,"MEAN_MOTION_DOT":9.79e-6,"MEAN_MOTION_DDOT":0},{"OBJECT_NAME":"TERRA","OBJECT_ID":"1999-068A","EPOCH":"2026-04-20T12:00:09.210240","MEAN_MOTION":14.61055942,"ECCENTRICITY":0.00034538,"INCLINATION":97.9512,"RA_OF_ASC_NODE":162.3194,"ARG_OF_PERICENTER":67.4898,"MEAN_ANOMALY":39.5527,"EPHEMERIS_TYPE":0,"CLASSIFICATION_TYPE":"U","NORAD_CAT_ID":25994,"ELEMENT_SET_NO":999,"REV_AT_EPOCH":40118,"BSTAR":6.2217585e-5,"MEAN_MOTION_DOT":2.61e-6,"MEAN_MOTION_DDOT":0},{"OBJECT_NAME":"SL-16 R/B","OBJECT_ID":"2000-006B","EPOCH":"2026-04-20T09:56:17.674080","MEAN_MOTION":14.15828348,"ECCENTRICITY":0.0014707,"INCLINATION":71.0043,"RA_OF_ASC_NODE":10.104,"ARG_OF_PERICENTER":122.3624,"MEAN_ANOMALY":237.8924,"EPHEMERIS_TYPE":0,"CLASSIFICATION_TYPE":"U","NORAD_CAT_ID":26070,"ELEMENT_SET_NO":999,"REV_AT_EPOCH":35446,"BSTAR":3.0299182e-5,"MEAN_MOTION_DOT":1.2e-7,"MEAN_MOTION_DDOT":0},{"OBJECT_NAME":"TITAN 4B R/B","OBJECT_ID":"2000-047B","EPOCH":"2026-04-20T13:35:35.886912","MEAN_MOTION":15.09885367,"ECCENTRICITY":0.00418941,"INCLINATION":67.9881,"RA_OF_ASC_NODE":282.721,"ARG_OF_PERICENTER":347.2702,"MEAN_ANOMALY":12.7385,"EPHEMERIS_TYPE":0,"CLASSIFICATION_TYPE":"U","NORAD_CAT_ID":26474,"ELEMENT_SET_NO":999,"REV_AT_EPOCH":39923,"BSTAR":0.00012851247,"MEAN_MOTION_DOT":1.989e-5,"MEAN_MOTION_DDOT":0},{"OBJECT_NAME":"ENVISAT","OBJECT_ID":"2002-009A","EPOCH":"2026-04-20T15:07:53.655168","MEAN_MOTION":14.39050431,"ECCENTRICITY":0.00011581,"INCLINATION":98.3792,"RA_OF_ASC_NODE":63.2475,"ARG_OF_PERICENTER":85.7431,"MEAN_ANOMALY":88.4948,"EPHEMERIS_TYPE":0,"CLASSIFICATION_TYPE":"U","NORAD_CAT_ID":27386,"ELEMENT_SET_NO":999,"REV_AT_EPOCH":26520,"BSTAR":3.3956897e-5,"MEAN_MOTION_DOT":6.2e-7,"MEAN_MOTION_DDOT":0},{"OBJECT_NAME":"IDEFIX & ARIANE 42P R/B","OBJECT_ID":"2002-021B","EPOCH":"2026-04-20T14:05:36.824064","MEAN_MOTION":14.31052681,"ECCENTRICITY":0.00129523,"INCLINATION":98.5916,"RA_OF_ASC_NODE":48.7055,"ARG_OF_PERICENTER":66.2013,"MEAN_ANOMALY":294.0526,"EPHEMERIS_TYPE":0,"CLASSIFICATION_TYPE":"U","NORAD_CAT_ID":27422,"ELEMENT_SET_NO":999,"REV_AT_EPOCH":25001,"BSTAR":7.7030824e-5,"MEAN_MOTION_DOT":1.59e-6,"MEAN_MOTION_DDOT":0},{"OBJECT_NAME":"AQUA","OBJECT_ID":"2002-022A","EPOCH":"2026-04-20T15:48:36.462240","MEAN_MOTION":14.6206509,"ECCENTRICITY":0.00019305,"INCLINATION":98.4239,"RA_OF_ASC_NODE":78.8108,"ARG_OF_PERICENTER":101.6516,"MEAN_ANOMALY":71.4213,"EPHEMERIS_TYPE":0,"CLASSIFICATION_TYPE":"U","NORAD_CAT_ID":27424,"ELEMENT_SET_NO":999,"REV_AT_EPOCH":27486,"BSTAR":0.00012228307,"MEAN_MOTION_DOT":5.65e-6,"MEAN_MOTION_DDOT":0},{"OBJECT_NAME":"CZ-4B R/B","OBJECT_ID":"2002-024C","EPOCH":"2026-04-20T10:35:59.296128","MEAN_MOTION":14.14554857,"ECCENTRICITY":0.00490468,"INCLINATION":98.8755,"RA_OF_ASC_NODE":163.6209,"ARG_OF_PERICENTER":264.2465,"MEAN_ANOMALY":106.293,"EPHEMERIS_TYPE":0,"CLASSIFICATION_TYPE":"U","NORAD_CAT_ID":27432,"ELEMENT_SET_NO":999,"REV_AT_EPOCH":23514,"BSTAR":3.0217698e-5,"MEAN_MOTION_DOT":1.4e-7,"MEAN_MOTION_DDOT":0},{"OBJECT_NAME":"MIDORI II (ADEOS-II)","OBJECT_ID":"2002-056A","EPOCH":"2026-04-20T14:18:20.193120","MEAN_MOTION":14.29315252,"ECCENTRICITY":5.408e-5,"INCLINATION":98.7837,"RA_OF_ASC_NODE":69.3828,"ARG_OF_PERICENTER":146.8176,"MEAN_ANOMALY":213.3039,"EPHEMERIS_TYPE":0,"CLASSIFICATION_TYPE":"U","NORAD_CAT_ID":27597,"ELEMENT_SET_NO":999,"REV_AT_EPOCH":21628,"BSTAR":9.2607313e-5,"MEAN_MOTION_DOT":1.9e-6,"MEAN_MOTION_DDOT":0},{"OBJECT_NAME":"H-2A R/B","OBJECT_ID":"2002-056E","EPOCH":"2026-04-20T09:06:26.717760","MEAN_MOTION":14.33789334,"ECCENTRICITY":0.00710447,"INCLINATION":98.327,"RA_OF_ASC_NODE":69.1768,"ARG_OF_PERICENTER":38.2168,"MEAN_ANOMALY":73.3658,"EPHEMERIS_TYPE":0,"CLASSIFICATION_TYPE":"U","NORAD_CAT_ID":27601,"ELEMENT_SET_NO":999,"REV_AT_EPOCH":22008,"BSTAR":8.710303e-5,"MEAN_MOTION_DOT":2.07e-6,"MEAN_MOTION_DDOT":0},{"OBJECT_NAME":"CZ-4B R/B","OBJECT_ID":"2003-049C","EPOCH":"2026-04-20T11:15:16.699392","MEAN_MOTION":14.55055735,"ECCENTRICITY":0.00493072,"INCLINATION":98.69,"RA_OF_ASC_NODE":107.0231,"ARG_OF_PERICENTER":103.8884,"MEAN_ANOMALY":256.7804,"EPHEMERIS_TYPE":0,"CLASSIFICATION_TYPE":"U","NORAD_CAT_ID":28059,"ELEMENT_SET_NO":999,"REV_AT_EPOCH":19267,"BSTAR":6.6703598e-5,"MEAN_MOTION_DOT":2.41e-6,"MEAN_MOTION_DDOT":0},{"OBJECT_NAME":"CZ-2C R/B","OBJECT_ID":"2004-012C","EPOCH":"2026-04-20T10:23:23.917344","MEAN_MOTION":15.69645457,"ECCENTRICITY":0.00139812,"INCLINATION":97.7135,"RA_OF_ASC_NODE":179.8311,"ARG_OF_PERICENTER":154.0785,"MEAN_ANOMALY":206.118,"EPHEMERIS_TYPE":0,"CLASSIFICATION_TYPE":"U","NORAD_CAT_ID":28222,"ELEMENT_SET_NO":999,"REV_AT_EPOCH":21081,"BSTAR":0.00038159242,"MEAN_MOTION_DOT":0.00045406,"MEAN_MOTION_DDOT":0},{"OBJECT_NAME":"SL-16 R/B","OBJECT_ID":"2004-021B","EPOCH":"2026-04-20T09:20:54.322368","MEAN_MOTION":14.14605561,"ECCENTRICITY":0.00066375,"INCLINATION":70.9996,"RA_OF_ASC_NODE":144.9857,"ARG_OF_PERICENTER":315.7588,"MEAN_ANOMALY":44.3003,"EPHEMERIS_TYPE":0,"CLASSIFICATION_TYPE":"U","NORAD_CAT_ID":28353,"ELEMENT_SET_NO":999,"REV_AT_EPOCH":12873,"BSTAR":-4.5256839e-5,"MEAN_MOTION_DOT":-1.35e-6,"MEAN_MOTION_DDOT":0},{"OBJECT_NAME":"CZ-4B R/B","OBJECT_ID":"2004-035C","EPOCH":"2026-04-20T01:29:39.653664","MEAN_MOTION":15.29738411,"ECCENTRICITY":0.00317843,"INCLINATION":97.3426,"RA_OF_ASC_NODE":143.8138,"ARG_OF_PERICENTER":178.4746,"MEAN_ANOMALY":181.6597,"EPHEMERIS_TYPE":0,"CLASSIFICATION_TYPE":"U","NORAD_CAT_ID":28415,"ELEMENT_SET_NO":999,"REV_AT_EPOCH":18623,"BSTAR":0.0002268931,"MEAN_MOTION_DOT":6.558e-5,"MEAN_MOTION_DDOT":0},{"OBJECT_NAME":"CZ-2C R/B","OBJECT_ID":"2004-046B","EPOCH":"2026-04-20T08:17:50.006688","MEAN_MOTION":14.27008132,"ECCENTRICITY":0.0140141,"INCLINATION":98.197,"RA_OF_ASC_NODE":22.7331,"ARG_OF_PERICENTER":32.1382,"MEAN_ANOMALY":328.8248,"EPHEMERIS_TYPE":0,"CLASSIFICATION_TYPE":"U","NORAD_CAT_ID":28480,"ELEMENT_SET_NO":999,"REV_AT_EPOCH":11444,"BSTAR":5.6364592e-5,"MEAN_MOTION_DOT":1.11e-6,"MEAN_MOTION_DDOT":0},{"OBJECT_NAME":"ARIANE 5 R/B","OBJECT_ID":"2004-049H","EPOCH":"2026-04-20T11:13:12.209952","MEAN_MOTION":14.85343292,"ECCENTRICITY":0.00833318,"INCLINATION":98.2683,"RA_OF_ASC_NODE":280.5058,"ARG_OF_PERICENTER":214.9582,"MEAN_ANOMALY":144.6144,"EPHEMERIS_TYPE":0,"CLASSIFICATION_TYPE":"U","NORAD_CAT_ID":28499,"ELEMENT_SET_NO":999,"REV_AT_EPOCH":15199,"BSTAR":7.4743156e-5,"MEAN_MOTION_DOT":6.18e-6,"MEAN_MOTION_DDOT":0},{"OBJECT_NAME":"CZ-2D R/B","OBJECT_ID":"2005-024B","EPOCH":"2026-04-20T00:39:36.584928","MEAN_MOTION":15.63897347,"ECCENTRICITY":0.00038447,"INCLINATION":97.3544,"RA_OF_ASC_NODE":126.8038,"ARG_OF_PERICENTER":187.1942,"MEAN_ANOMALY":172.9262,"EPHEMERIS_TYPE":0,"CLASSIFICATION_TYPE":"U","NORAD_CAT_ID":28738,"ELEMENT_SET_NO":999,"REV_AT_EPOCH":14623,"BSTAR":0.00045126489,"MEAN_MOTION_DOT":0.00042407,"MEAN_MOTION_DDOT":0}]
