{"fetched_at":"2026-04-21T02:26:57Z","count":1496,"tles":[{"name":"TERRA","line1":"1 25994U 99068A   26110.50010660  .00000261  00000+0  62218-4 0  9990","line2":"2 25994  97.9512 162.3194 0003453  67.4898  39.5527 14.61055942401189","category":"Other"},{"name":"AQUA","line1":"1 27424U 02022A   26110.65875535  .00000565  00000+0  12228-3 0  9992","line2":"2 27424  98.4239  78.8108 0001930 101.6516  71.4213 14.62065090274869","category":"Other"},{"name":"ENVISAT","line1":"1 27386U 02009A   26110.63048212  .00000062  00000+0  33957-4 0  9991","line2":"2 27386  98.3792  63.2475 0001158  85.7431  88.4948 14.39050431265202","category":"Other"},{"name":"TITAN 4B R/B","line1":"1 26474U 00047B   26110.56638758  .00001989  00000+0  12851-3 0  9998","line2":"2 26474  67.9881 282.7210 0041894 347.2702  12.7385 15.09885367399231","category":"Other"},{"name":"CZ-2C R/B","line1":"1 28222U 04012C   26110.43291571  .00045406  00000+0  38159-3 0  9992","line2":"2 28222  97.7135 179.8311 0013981 154.0785 206.1180 15.69645457210814","category":"Other"},{"name":"IDEFIX & ARIANE 42P R/B","line1":"1 27422U 02021B   26110.58723176  .00000159  00000+0  77031-4 0  9997","line2":"2 27422  98.5916  48.7055 0012952  66.2013 294.0526 14.31052681250010","category":"Other"},{"name":"ARIANE 5 R/B","line1":"1 28499U 04049H   26110.46750243  .00000618  00000+0  74743-4 0  9993","line2":"2 28499  98.2683 280.5058 0083331 214.9582 144.6144 14.85343292151997","category":"Other"},{"name":"CZ-4B R/B","line1":"1 28415U 04035C   26110.06226451  .00006558  00000+0  22689-3 0  9991","line2":"2 28415  97.3426 143.8138 0031784 178.4746 181.6597 15.29738411186239","category":"Other"},{"name":"SL-16 R/B","line1":"1 28353U 04021B   26110.38951762 -.00000135  00000+0 -45257-4 0  9996","line2":"2 28353  70.9996 144.9857 0006637 315.7588  44.3003 14.14605561128738","category":"Other"},{"name":"CZ-4B R/B","line1":"1 27432U 02024C   26110.44165852  .00000014  00000+0  30218-4 0  9993","line2":"2 27432  98.8755 163.6209 0049046 264.2465 106.2930 14.14554857235141","category":"Other"},{"name":"MIDORI II (ADEOS-II)","line1":"1 27597U 02056A   26110.59606705  .00000190  00000+0  92607-4 0  9998","line2":"2 27597  98.7837  69.3828 0000540 146.8176 213.3039 14.29315252216286","category":"Other"},{"name":"H-2A R/B","line1":"1 27601U 02056E   26110.37947590  .00000207  00000+0  87103-4 0  9994","line2":"2 27601  98.3270  69.1768 0071044  38.2168  73.3658 14.33789334220087","category":"Other"},{"name":"HELIOS 1B","line1":"1 25977U 99064A   26110.47931483  .00000979  00000+0  11344-3 0  9997","line2":"2 25977  98.1654  13.9440 0000542  46.4734 313.6526 14.87846531691475","category":"Other"},{"name":"CZ-4B R/B","line1":"1 28059U 03049C   26110.46894328  .00000241  00000+0  66704-4 0  9997","line2":"2 28059  98.6900 107.0231 0049307 103.8884 256.7804 14.55055735192674","category":"Other"},{"name":"SL-16 R/B","line1":"1 26070U 00006B   26110.41409345  .00000012  00000+0  30299-4 0  9990","line2":"2 26070  71.0043  10.1040 0014707 122.3624 237.8924 14.15828348354468","category":"Other"},{"name":"CZ-2C R/B","line1":"1 28480U 04046B   26110.34571767  .00000111  00000+0  56365-4 0  9997","line2":"2 28480  98.1970  22.7331 0140141  32.1382 328.8248 14.27008132114443","category":"Other"},{"name":"CZ-2D R/B","line1":"1 28738U 05024B   26110.02750677  .00042407  00000+0  45126-3 0  9990","line2":"2 28738  97.3544 126.8038 0003844 187.1942 172.9262 15.63897347146239","category":"Other"}]}